CTC1_L_00541063-01
1 10124U 25025L   26075.70038194  .00000000  00000+0  00000-0 0  9993
2 10124  99.7000 148.8000 0000000   0.0000 297.6000 13.56072486    13
CTC1_L_00541063-02
1 10125U 25381LI  26075.70038194  .00000000  00000+0  00000-0 0  9999
2 10125  99.7000 148.8000 0000000   0.0000 117.6000 13.56072486    15
CTC1_L_00541064-01
1 10126U 25404FR  26075.70038194  .00000000  00000+0  00000-0 0  9996
2 10126  99.7000 151.2000 0000000   0.0000 302.4000 13.56072486    18
CTC1_L_00541064-02
1 10127U 22184GG  26075.70038194  .00000000  00000+0  00000-0 0  9999
2 10127  99.7000 151.2000 0000000   0.0000 122.4000 13.56072486    19
CTC1_L_00541065-01
1 10128U 22625TN  26075.70038194  .00000000  00000+0  00000-0 0  9990
2 10128  99.7000 153.6000 0000000   0.0000 307.2000 13.56072486    19
CTC1_L_00541065-02
1 10129U 25362KG  26075.70038194  .00000000  00000+0  00000-0 0  9992
2 10129  99.7000 153.6000 0000000   0.0000 127.2000 13.56072486    10
CTC1_L_00541066-01
1 10130U 25850FL  26075.70038194  .00000000  00000+0  00000-0 0  9996
2 10130  99.7000 156.0000 0000000   0.0000 312.0000 13.56072486    13
CTC1_L_00541066-02
1 10131U 25517CM  26075.70038194  .00000000  00000+0  00000-0 0  9997
2 10131  99.7000 156.0000 0000000   0.0000 132.0000 13.56072486    14
CTC1_L_00541067-01
1 10132U 22877J   26075.70038194  .00000000  00000+0  00000-0 0  9994
2 10132  99.7000 158.4000 0000000   0.0000 316.8000 13.56072486    13
CTC1_L_00541067-02
1 10133U 25980PT  26075.70038194  .00000000  00000+0  00000-0 0  9993
2 10133  99.7000 158.4000 0000000   0.0000 136.8000 13.56072486    14
CTC1_L_00541068-01
1 10134U 23710KQ  26075.70038194  .00000000  00000+0  00000-0 0  9993
2 10134  99.7000 160.8000 0000000   0.0000 321.6000 13.56072486    16
CTC1_L_00541068-02
1 10135U 22278TG  26075.70038194  .00000000  00000+0  00000-0 0  9992
2 10135  99.7000 160.8000 0000000   0.0000 141.6000 13.56072486    17
CTC1_L_00541069-01
1 10136U 26283LM  26075.70038194  .00000000  00000+0  00000-0 0  9993
2 10136  99.7000 163.2000 0000000   0.0000 326.4000 13.56072486    18
CTC1_L_00541069-02
1 10137U 24962HM  26075.70038194  .00000000  00000+0  00000-0 0  9996
2 10137  99.7000 163.2000 0000000   0.0000 146.4000 13.56072486    19
CTC1_L_00541070-01
1 10138U 24654FB  26075.70038194  .00000000  00000+0  00000-0 0  9995
2 10138  99.7000 165.6000 0000000   0.0000 331.2000 13.56072486    10
CTC1_L_00541070-02
1 10139U 23167LR  26075.70038194  .00000000  00000+0  00000-0 0  9994
2 10139  99.7000 165.6000 0000000   0.0000 151.2000 13.56072486    11
CTC1_L_00541071-01
1 10140U 22321JA  26075.70038194  .00000000  00000+0  00000-0 0  9997
2 10140  99.7000 168.0000 0000000   0.0000 336.0000 13.56072486    13
CTC1_L_00541071-02
1 10141U 26305KF  26075.70038194  .00000000  00000+0  00000-0 0  9994
2 10141  99.7000 168.0000 0000000   0.0000 156.0000 13.56072486    14
CTC1_L_00541072-01
1 10142U 26991LK  26075.70038194  .00000000  00000+0  00000-0 0  9996
2 10142  99.7000 170.4000 0000000   0.0000 340.8000 13.56072486    15
CTC1_L_00541072-02
1 10143U 24869CC  26075.70038194  .00000000  00000+0  00000-0 0  9999
2 10143  99.7000 170.4000 0000000   0.0000 160.8000 13.56072486    16
CTC1_L_00541073-01
1 10144U 22445UH  26075.70038194  .00000000  00000+0  00000-0 0  9998
2 10144  99.7000 172.8000 0000000   0.0000 345.6000 13.56072486    16
CTC1_L_00541073-02
1 10145U 23722QM  26075.70038194  .00000000  00000+0  00000-0 0  9998
2 10145  99.7000 172.8000 0000000   0.0000 165.6000 13.56072486    17
CTC1_L_00541074-01
1 10146U 25580WX  26075.70038194  .00000000  00000+0  00000-0 0  9993
2 10146  99.7000 175.2000 0000000   0.0000 350.4000 13.56072486    19
CTC1_L_00541074-02
1 10147U 25462DP  26075.70038194  .00000000  00000+0  00000-0 0  9993
2 10147  99.7000 175.2000 0000000   0.0000 170.4000 13.56072486    10
CTC1_L_00541075-01
1 10148U 22977L   26075.70038194  .00000000  00000+0  00000-0 0  9992
2 10148  99.7000 177.6000 0000000   0.0000 355.2000 13.56072486    10
CTC1_L_00541075-02
1 10149U 24488KY  26075.70038194  .00000000  00000+0  00000-0 0  9992
2 10149  99.7000 177.6000 0000000   0.0000 175.2000 13.56072486    11
CTC1_L_00541076-01
1 10150U 25998ZM  26075.70038194  .00000000  00000+0  00000-0 0  9991
2 10150  99.7000 180.0000 0000000   0.0000   0.0000 13.56072486    16
CTC1_L_00541076-02
1 10151U 25432D   26075.70038194  .00000000  00000+0  00000-0 0  9995
2 10151  99.7000 180.0000 0000000   0.0000 180.0000 13.56072486    16
CTC1_L_00541077-01
1 10152U 26717GU  26075.70038194  .00000000  00000+0  00000-0 0  9993
2 10152  99.7000 182.4000 0000000   0.0000   4.8000 13.56072486    16
CTC1_L_00541077-02
1 10153U 25442CM  26075.70038194  .00000000  00000+0  00000-0 0  9998
2 10153  99.7000 182.4000 0000000   0.0000 184.8000 13.56072486    16
CTC1_L_00541078-01
1 10154U 22924RS  26075.70038194  .00000000  00000+0  00000-0 0  9991
2 10154  99.7000 184.8000 0000000   0.0000   9.6000 13.56072486    17
CTC1_L_00541078-02
1 10155U 22090MI  26075.70038194  .00000000  00000+0  00000-0 0  9996
2 10155  99.7000 184.8000 0000000   0.0000 189.6000 13.56072486    17
CTC1_L_00541079-01
1 10156U 25910GR  26075.70038194  .00000000  00000+0  00000-0 0  9991
2 10156  99.7000 187.2000 0000000   0.0000  14.4000 13.56072486    10
CTC1_L_00541079-02
1 10157U 25129DZ  26075.70038194  .00000000  00000+0  00000-0 0  9994
2 10157  99.7000 187.2000 0000000   0.0000 194.4000 13.56072486    10
CTC1_L_00541080-01
1 10158U 26932SQ  26075.70038194  .00000000  00000+0  00000-0 0  9998
2 10158  99.7000 189.6000 0000000   0.0000  19.2000 13.56072486    11
CTC1_L_00541080-02
1 10159U 22742JF  26075.70038194  .00000000  00000+0  00000-0 0  9994
2 10159  99.7000 189.6000 0000000   0.0000 199.2000 13.56072486    11
CTC1_L_00541081-01
1 10160U 22814ST  26075.70038194  .00000000  00000+0  00000-0 0  9996
2 10160  99.7000 192.0000 0000000   0.0000  24.0000 13.56072486    16
CTC1_L_00541081-02
1 10161U 22827VJ  26075.70038194  .00000000  00000+0  00000-0 0  9991
2 10161  99.7000 192.0000 0000000   0.0000 204.0000 13.56072486    17
CTC1_L_00541082-01
1 10162U 24615HO  26075.70038194  .00000000  00000+0  00000-0 0  9999
2 10162  99.7000 194.4000 0000000   0.0000  28.8000 13.56072486    16
CTC1_L_00541082-02
1 10163U 22553QN  26075.70038194  .00000000  00000+0  00000-0 0  9999
2 10163  99.7000 194.4000 0000000   0.0000 208.8000 13.56072486    17
CTC1_L_00541083-01
1 10164U 26255PB  26075.70038194  .00000000  00000+0  00000-0 0  9993
2 10164  99.7000 196.8000 0000000   0.0000  33.6000 13.56072486    18
CTC1_L_00541083-02
1 10165U 22355VB  26075.70038194  .00000000  00000+0  00000-0 0  9991
2 10165  99.7000 196.8000 0000000   0.0000 213.6000 13.56072486    19
CTC1_L_00541084-01
1 10166U 25935JY  26075.70038194  .00000000  00000+0  00000-0 0  9999
2 10166  99.7000 199.2000 0000000   0.0000  38.4000 13.56072486    10
CTC1_L_00541084-02
1 10167U 23365DG  26075.70038194  .00000000  00000+0  00000-0 0  9995
2 10167  99.7000 199.2000 0000000   0.0000 218.4000 13.56072486    11
CTC1_L_00541085-01
1 10168U 22207YV  26075.70038194  .00000000  00000+0  00000-0 0  9990
2 10168  99.7000 201.6000 0000000   0.0000  43.2000 13.56072486    14
CTC1_L_00541085-02
1 10169U 26368YT  26075.70038194  .00000000  00000+0  00000-0 0  9993
2 10169  99.7000 201.6000 0000000   0.0000 223.2000 13.56072486    15
CTC1_L_00541086-01
1 10170U 23409QZ  26075.70038194  .00000000  00000+0  00000-0 0  9998
2 10170  99.7000 204.0000 0000000   0.0000  48.0000 13.56072486    17
CTC1_L_00541086-02
1 10171U 25401BX  26075.70038194  .00000000  00000+0  00000-0 0  9993
2 10171  99.7000 204.0000 0000000   0.0000 228.0000 13.56072486    18
CTC1_L_00541087-01
1 10172U 23757CQ  26075.70038194  .00000000  00000+0  00000-0 0  9996
2 10172  99.7000 206.4000 0000000   0.0000  52.8000 13.56072486    18
CTC1_L_00541087-02
1 10173U 22045JS  26075.70038194  .00000000  00000+0  00000-0 0  9996
2 10173  99.7000 206.4000 0000000   0.0000 232.8000 13.56072486    19
CTC1_L_00541088-01
1 10174U 26940NP  26075.70038194  .00000000  00000+0  00000-0 0  9995
2 10174  99.7000 208.8000 0000000   0.0000  57.6000 13.56072486    19
CTC1_L_00541088-02
1 10175U 22825WG  26075.70038194  .00000000  00000+0  00000-0 0  9994
2 10175  99.7000 208.8000 0000000   0.0000 237.6000 13.56072486    10
CTC1_L_00541089-01
1 10176U 23515JE  26075.70038194  .00000000  00000+0  00000-0 0  9992
2 10176  99.7000 211.2000 0000000   0.0000  62.4000 13.56072486    13
CTC1_L_00541089-02
1 10177U 24378YV  26075.70038194  .00000000  00000+0  00000-0 0  9991
2 10177  99.7000 211.2000 0000000   0.0000 242.4000 13.56072486    14
CTC1_L_00541090-01
1 10178U 22830XA  26075.70038194  .00000000  00000+0  00000-0 0  9993
2 10178  99.7000 213.6000 0000000   0.0000  67.2000 13.56072486    14
CTC1_L_00541090-02
1 10179U 25740RB  26075.70038194  .00000000  00000+0  00000-0 0  9997
2 10179  99.7000 213.6000 0000000   0.0000 247.2000 13.56072486    15
CTC1_L_00541091-01
1 10180U 25253LR  26075.70038194  .00000000  00000+0  00000-0 0  9998
2 10180  99.7000 216.0000 0000000   0.0000  72.0000 13.56072486    18
CTC1_L_00541091-02
1 10181U 22058VA  26075.70038194  .00000000  00000+0  00000-0 0  9999
2 10181  99.7000 216.0000 0000000   0.0000 252.0000 13.56072486    19
CTC1_L_00541092-01
1 10182U 22808GI  26075.70038194  .00000000  00000+0  00000-0 0  9993
2 10182  99.7000 218.4000 0000000   0.0000  76.8000 13.56072486    18
CTC1_L_00541092-02
1 10183U 25399SX  26075.70038194  .00000000  00000+0  00000-0 0  9992
2 10183  99.7000 218.4000 0000000   0.0000 256.8000 13.56072486    19
CTC1_L_00541093-01
1 10184U 26869GJ  26075.70038194  .00000000  00000+0  00000-0 0  9996
2 10184  99.7000 220.8000 0000000   0.0000  81.6000 13.56072486    11
CTC1_L_00541093-02
1 10185U 23912QM  26075.70038194  .00000000  00000+0  00000-0 0  9993
2 10185  99.7000 220.8000 0000000   0.0000 261.6000 13.56072486    12
